[
  {
    "OBJECT_NAME": "STARLINK-1360",
    "OBJECT_ID": "20025BK",
    "EPOCH": "2025-11-10T23:28:14.745216",
    "MEAN_MOTION": 15.77728265,
    "ECCENTRICITY": 0.0004247,
    "INCLINATION": 53.0411,
    "RA_OF_ASC_NODE": 148.4131,
    "ARG_OF_PERICENTER": 164.7704,
    "MEAN_ANOMALY": 195.3444,
    "EPHEMERIS_TYPE": 0,
    "CLASSIFICATION_TYPE": "U",
    "NORAD_CAT_ID": 45588,
    "ELEMENT_SET_NO": 999,
    "REV_AT_EPOCH": 30903,
    "BSTAR": 0.0007413400000000001,
    "MEAN_MOTION_DOT": 0.0012817,
    "MEAN_MOTION_DDOT": 0.0,
    "TLE_LINE1": "1 45588U 20025BK  25314.97794844  .00128170  00000+0  74134-3 0  9996",
    "TLE_LINE2": "2 45588  53.0411 148.4131 0004247 164.7704 195.3444 15.77728265309039",
    "COMMENT": "Grouped by shell and plane from TLE"
  },
  {
    "OBJECT_NAME": "STARLINK-11077 [DTC]",
    "OBJECT_ID": "24002C",
    "EPOCH": "2025-11-10T13:12:23.477472",
    "MEAN_MOTION": 15.69719602,
    "ECCENTRICITY": 8.7e-05,
    "INCLINATION": 53.1568,
    "RA_OF_ASC_NODE": 141.4324,
    "ARG_OF_PERICENTER": 70.6106,
    "MEAN_ANOMALY": 289.5006,
    "EPHEMERIS_TYPE": 0,
    "CLASSIFICATION_TYPE": "U",
    "NORAD_CAT_ID": 58707,
    "ELEMENT_SET_NO": 999,
    "REV_AT_EPOCH": 10772,
    "BSTAR": 1.5096000000000003e-05,
    "MEAN_MOTION_DOT": 1.242e-05,
    "MEAN_MOTION_DDOT": 0.0,
    "TLE_LINE1": "1 58707U 24002C   25314.55027173  .00001242  00000+0  15096-4 0  9993",
    "TLE_LINE2": "2 58707  53.1568 141.4324 0000870  70.6106 289.5006 15.69719602107724",
    "COMMENT": "Grouped by shell and plane from TLE"
  },
  {
    "OBJECT_NAME": "STARLINK-11079 [DTC]",
    "OBJECT_ID": "24002D",
    "EPOCH": "2025-11-10T18:57:56.114784",
    "MEAN_MOTION": 15.69715597,
    "ECCENTRICITY": 1.13e-05,
    "INCLINATION": 53.1588,
    "RA_OF_ASC_NODE": 140.0911,
    "ARG_OF_PERICENTER": 166.2299,
    "MEAN_ANOMALY": 193.8722,
    "EPHEMERIS_TYPE": 0,
    "CLASSIFICATION_TYPE": "U",
    "NORAD_CAT_ID": 58708,
    "ELEMENT_SET_NO": 999,
    "REV_AT_EPOCH": 10776,
    "BSTAR": 5.8870000000000006e-06,
    "MEAN_MOTION_DOT": 1.26e-06,
    "MEAN_MOTION_DDOT": 0.0,
    "TLE_LINE1": "1 58708U 24002D   25314.79023281  .00000126  00000+0  58870-5 0  9994",
    "TLE_LINE2": "2 58708  53.1588 140.0911 0000113 166.2299 193.8722 15.69715597107764",
    "COMMENT": "Grouped by shell and plane from TLE"
  },
  {
    "OBJECT_NAME": "STARLINK-11289 [DTC]",
    "OBJECT_ID": "24158B",
    "EPOCH": "2025-11-11T05:45:49.925088",
    "MEAN_MOTION": 15.69676024,
    "ECCENTRICITY": 5.27e-05,
    "INCLINATION": 53.1593,
    "RA_OF_ASC_NODE": 144.972,
    "ARG_OF_PERICENTER": 117.3875,
    "MEAN_ANOMALY": 242.7197,
    "EPHEMERIS_TYPE": 0,
    "CLASSIFICATION_TYPE": "U",
    "NORAD_CAT_ID": 60991,
    "ELEMENT_SET_NO": 999,
    "REV_AT_EPOCH": 6899,
    "BSTAR": 0.00010525,
    "MEAN_MOTION_DOT": 0.00012164,
    "MEAN_MOTION_DDOT": 0.0,
    "TLE_LINE1": "1 60991U 24158B   25315.24016117  .00012164  00000+0  10525-3 0  9992",
    "TLE_LINE2": "2 60991  53.1593 144.9720 0000527 117.3875 242.7197 15.69676024 68996",
    "COMMENT": "Grouped by shell and plane from TLE"
  },
  {
    "OBJECT_NAME": "STARLINK-11282 [DTC]",
    "OBJECT_ID": "24158C",
    "EPOCH": "2025-11-10T22:28:35.596704",
    "MEAN_MOTION": 15.69711822,
    "ECCENTRICITY": 0.0001862,
    "INCLINATION": 53.1576,
    "RA_OF_ASC_NODE": 146.638,
    "ARG_OF_PERICENTER": 81.8404,
    "MEAN_ANOMALY": 278.2825,
    "EPHEMERIS_TYPE": 0,
    "CLASSIFICATION_TYPE": "U",
    "NORAD_CAT_ID": 60992,
    "ELEMENT_SET_NO": 999,
    "REV_AT_EPOCH": 6894,
    "BSTAR": 6.074100000000001e-06,
    "MEAN_MOTION_DOT": 1.46e-06,
    "MEAN_MOTION_DDOT": 0.0,
    "TLE_LINE1": "1 60992U 24158C   25314.93652311  .00000146  00000+0  60741-5 0  9994",
    "TLE_LINE2": "2 60992  53.1576 146.6380 0001862  81.8404 278.2825 15.69711822 68948",
    "COMMENT": "Grouped by shell and plane from TLE"
  },
  {
    "OBJECT_NAME": "STARLINK-11283 [DTC]",
    "OBJECT_ID": "24158D",
    "EPOCH": "2025-11-10T23:18:01.576512",
    "MEAN_MOTION": 15.69703969,
    "ECCENTRICITY": 2.93e-05,
    "INCLINATION": 53.162,
    "RA_OF_ASC_NODE": 146.8641,
    "ARG_OF_PERICENTER": 212.4484,
    "MEAN_ANOMALY": 147.6516,
    "EPHEMERIS_TYPE": 0,
    "CLASSIFICATION_TYPE": "U",
    "NORAD_CAT_ID": 60993,
    "ELEMENT_SET_NO": 999,
    "REV_AT_EPOCH": 6894,
    "BSTAR": 2.7250999999999997e-05,
    "MEAN_MOTION_DOT": 2.714e-05,
    "MEAN_MOTION_DDOT": 0.0,
    "TLE_LINE1": "1 60993U 24158D   25314.97085158  .00002714  00000+0  27251-4 0  9999",
    "TLE_LINE2": "2 60993  53.1620 146.8641 0000293 212.4484 147.6516 15.69703969 68947",
    "COMMENT": "Grouped by shell and plane from TLE"
  },
  {
    "OBJECT_NAME": "STARLINK-11267 [DTC]",
    "OBJECT_ID": "24158E",
    "EPOCH": "2025-11-10T20:07:36.410304",
    "MEAN_MOTION": 15.69718614,
    "ECCENTRICITY": 5.41e-05,
    "INCLINATION": 53.1576,
    "RA_OF_ASC_NODE": 147.4631,
    "ARG_OF_PERICENTER": 91.067,
    "MEAN_ANOMALY": 269.041,
    "EPHEMERIS_TYPE": 0,
    "CLASSIFICATION_TYPE": "U",
    "NORAD_CAT_ID": 60994,
    "ELEMENT_SET_NO": 999,
    "REV_AT_EPOCH": 6892,
    "BSTAR": 0.0,
    "MEAN_MOTION_DOT": -1.367e-05,
    "MEAN_MOTION_DDOT": 0.0,
    "TLE_LINE1": "1 60994U 24158E   25314.83861586 -.00001367  00000+0 -64291-5 0  9993",
    "TLE_LINE2": "2 60994  53.1576 147.4631 0000541  91.0670 269.0410 15.69718614 68921",
    "COMMENT": "Grouped by shell and plane from TLE"
  },
  {
    "OBJECT_NAME": "STARLINK-11269 [DTC]",
    "OBJECT_ID": "24158F",
    "EPOCH": "2025-11-10T20:00:31.831200",
    "MEAN_MOTION": 15.69729355,
    "ECCENTRICITY": 6.9e-05,
    "INCLINATION": 53.1592,
    "RA_OF_ASC_NODE": 147.4269,
    "ARG_OF_PERICENTER": 133.7489,
    "MEAN_ANOMALY": 226.3586,
    "EPHEMERIS_TYPE": 0,
    "CLASSIFICATION_TYPE": "U",
    "NORAD_CAT_ID": 60995,
    "ELEMENT_SET_NO": 999,
    "REV_AT_EPOCH": 6891,
    "BSTAR": 7.118600000000001e-06,
    "MEAN_MOTION_DOT": 2.75e-06,
    "MEAN_MOTION_DDOT": 0.0,
    "TLE_LINE1": "1 60995U 24158F   25314.83370175  .00000275  00000+0  71186-5 0  9999",
    "TLE_LINE2": "2 60995  53.1592 147.4269 0000690 133.7489 226.3586 15.69729355 68917",
    "COMMENT": "Grouped by shell and plane from TLE"
  },
  {
    "OBJECT_NAME": "STARLINK-11281 [DTC]",
    "OBJECT_ID": "24158G",
    "EPOCH": "2025-11-10T13:46:44.349024",
    "MEAN_MOTION": 15.69719408,
    "ECCENTRICITY": 6.69e-05,
    "INCLINATION": 53.1595,
    "RA_OF_ASC_NODE": 148.6486,
    "ARG_OF_PERICENTER": 96.4802,
    "MEAN_ANOMALY": 263.6292,
    "EPHEMERIS_TYPE": 0,
    "CLASSIFICATION_TYPE": "U",
    "NORAD_CAT_ID": 60996,
    "ELEMENT_SET_NO": 999,
    "REV_AT_EPOCH": 6887,
    "BSTAR": 8.5174e-06,
    "MEAN_MOTION_DOT": 4.44e-06,
    "MEAN_MOTION_DDOT": 0.0,
    "TLE_LINE1": "1 60996U 24158G   25314.57412441  .00000444  00000+0  85174-5 0  9994",
    "TLE_LINE2": "2 60996  53.1595 148.6486 0000669  96.4802 263.6292 15.69719408 68876",
    "COMMENT": "Grouped by shell and plane from TLE"
  },
  {
    "OBJECT_NAME": "STARLINK-11287 [DTC]",
    "OBJECT_ID": "24158J",
    "EPOCH": "2025-11-10T13:39:40.414464",
    "MEAN_MOTION": 15.69719999,
    "ECCENTRICITY": 5.05e-05,
    "INCLINATION": 53.1616,
    "RA_OF_ASC_NODE": 148.6142,
    "ARG_OF_PERICENTER": 193.0862,
    "MEAN_ANOMALY": 167.0143,
    "EPHEMERIS_TYPE": 0,
    "CLASSIFICATION_TYPE": "U",
    "NORAD_CAT_ID": 60998,
    "ELEMENT_SET_NO": 999,
    "REV_AT_EPOCH": 6887,
    "BSTAR": 0.0,
    "MEAN_MOTION_DOT": -8.94e-06,
    "MEAN_MOTION_DDOT": 0.0,
    "TLE_LINE1": "1 60998U 24158J   25314.56921776 -.00000894  00000+0 -25273-5 0  9996",
    "TLE_LINE2": "2 60998  53.1616 148.6142 0000505 193.0862 167.0143 15.69719999 68877",
    "COMMENT": "Grouped by shell and plane from TLE"
  },
  {
    "OBJECT_NAME": "STARLINK-11270 [DTC]",
    "OBJECT_ID": "24158K",
    "EPOCH": "2025-11-10T19:39:20.856096",
    "MEAN_MOTION": 15.69713748,
    "ECCENTRICITY": 1.58e-05,
    "INCLINATION": 53.1588,
    "RA_OF_ASC_NODE": 147.3269,
    "ARG_OF_PERICENTER": 80.3692,
    "MEAN_ANOMALY": 279.7344,
    "EPHEMERIS_TYPE": 0,
    "CLASSIFICATION_TYPE": "U",
    "NORAD_CAT_ID": 60999,
    "ELEMENT_SET_NO": 999,
    "REV_AT_EPOCH": 6891,
    "BSTAR": 1.314e-05,
    "MEAN_MOTION_DOT": 1.005e-05,
    "MEAN_MOTION_DDOT": 0.0,
    "TLE_LINE1": "1 60999U 24158K   25314.81899139  .00001005  00000+0  13140-4 0  9994",
    "TLE_LINE2": "2 60999  53.1588 147.3269 0000158  80.3692 279.7344 15.69713748 68910",
    "COMMENT": "Grouped by shell and plane from TLE"
  },
  {
    "OBJECT_NAME": "STARLINK-11290 [DTC]",
    "OBJECT_ID": "24158L",
    "EPOCH": "2025-11-11T06:14:04.360416",
    "MEAN_MOTION": 15.69718115,
    "ECCENTRICITY": 9.93e-05,
    "INCLINATION": 53.1578,
    "RA_OF_ASC_NODE": 145.0978,
    "ARG_OF_PERICENTER": 78.3699,
    "MEAN_ANOMALY": 281.743,
    "EPHEMERIS_TYPE": 0,
    "CLASSIFICATION_TYPE": "U",
    "NORAD_CAT_ID": 61000,
    "ELEMENT_SET_NO": 999,
    "REV_AT_EPOCH": 6905,
    "BSTAR": 6.873200000000001e-06,
    "MEAN_MOTION_DOT": 2.44e-06,
    "MEAN_MOTION_DDOT": 0.0,
    "TLE_LINE1": "1 61000U 24158L   25315.25977269  .00000244  00000+0  68732-5 0  9990",
    "TLE_LINE2": "2 61000  53.1578 145.0978 0000993  78.3699 281.7430 15.69718115 69054",
    "COMMENT": "Grouped by shell and plane from TLE"
  }
]